GLOBALSTAR M045         
1 25676U 99019A   24365.91721823 -.00000086  00000+0  64982-4 0  9994
2 25676  51.9982  64.8723 0000596 173.9615 357.0083 12.27053896172733
GLOBALSTAR M019         
1 25677U 99019B   24366.51996973 -.00000104  00000+0 -14919-3 0  9998
2 25677  51.9852 181.7212 0001356  47.9523 314.1646 12.13871977164974
GLOBALSTAR M044         
1 25678U 99019C   24366.08181181 -.00000025  00000+0  81751-3 0  9997
2 25678  51.9963 113.2688 0007316  83.4536  87.2979 11.90246823151283
GLOBALSTAR M042         
1 25679U 99019D   24366.47383559 -.00000088  00000+0  37800-4 0  9990
2 25679  51.9988 164.4101 0001947 330.9051  79.4554 12.22076132164821
GLOBALSTAR M025         
1 25770U 99031A   24365.94294727 -.00000062  00000+0  15964-3 0  9993
2 25770  51.9774 189.0213 0001137 162.2315 347.1247 11.22558480462817
GLOBALSTAR M049         
1 25771U 99031B   24365.91031672 -.00000050  00000+0  52714-3 0  9990
2 25771  51.9838 215.4044 0004671  88.3705 271.7627 11.12112090 98701
GLOBALSTAR M047         
1 25772U 99031C   24365.92312684 -.00000066  00000+0  11062-3 0  9995
2 25772  51.9806 228.4218 0016178 338.4502  21.5621 11.31925922452057
GLOBALSTAR M052         
1 25773U 99031D   24366.43550883 -.00000048  00000+0  58746-3 0  9998
2 25773  51.9896 325.2490 0002192 261.6868 247.8547 11.15056530117621
